{
  "type": "FeatureCollection",
  "features": [
    {
      "type": "Feature",
      "properties": {
        "norad_id": 36216,
        "name": "FENGYUN 1C DEB",
        "group": "fengyun-1c-debris",
        "lat": -69.1170100435287,
        "lon": 164.4841201275039,
        "alt_km": 854.695728980998,
        "timestamp": "2025-12-13T16:48:32.998226+00:00",
        "meta_object_name": "FENGYUN 1C DEB",
        "meta_object_id": "1999-025DUR",
        "meta_epoch": "2025-12-09T18:32:38.416704",
        "meta_mean_motion": 14.18849305,
        "meta_eccentricity": 0.00451569,
        "meta_inclination": 98.6092,
        "meta_ra_of_asc_node": 4.0664,
        "meta_arg_of_pericenter": 26.4592,
        "meta_mean_anomaly": 333.8876,
        "meta_ephemeris_type": 0,
        "meta_classification_type": "U",
        "meta_norad_cat_id": 36216,
        "meta_element_set_no": 999,
        "meta_rev_at_epoch": 64330,
        "meta_bstar": 0.00051766748,
        "meta_mean_motion_dot": 1.046e-05,
        "meta_mean_motion_ddot": 0,
        "tle_line1": "1 36216U 99025DUR 25343.77266686  .00001046  00000+0  51767-3 0  9997",
        "tle_line2": "2 36216  98.6092   4.0664 0045156  26.4592 333.8876 14.18849305643300"
      },
      "geometry": {
        "type": "Point",
        "coordinates": [
          164.4841201275039,
          -69.1170100435287
        ]
      }
    },
    {
      "type": "Feature",
      "properties": {
        "norad_id": 36218,
        "name": "FENGYUN 1C DEB",
        "group": "fengyun-1c-debris",
        "lat": -25.107775676048835,
        "lon": -166.88795747178258,
        "alt_km": 625.173391505069,
        "timestamp": "2025-12-13T16:48:32.998236+00:00",
        "meta_object_name": "FENGYUN 1C DEB",
        "meta_object_id": "1999-025DUT",
        "meta_epoch": "2025-12-12T19:42:04.442400",
        "meta_mean_motion": 14.70989932,
        "meta_eccentricity": 0.0072811,
        "meta_inclination": 99.0771,
        "meta_ra_of_asc_node": 187.8366,
        "meta_arg_of_pericenter": 295.4261,
        "meta_mean_anomaly": 63.9419,
        "meta_ephemeris_type": 0,
        "meta_classification_type": "U",
        "meta_norad_cat_id": 36218,
        "meta_element_set_no": 999,
        "meta_rev_at_epoch": 59144,
        "meta_bstar": 0.0015985689,
        "meta_mean_motion_dot": 0.00010165,
        "meta_mean_motion_ddot": 0,
        "tle_line1": "1 36218U 99025DUT 25346.82088475  .00010165  00000+0  15986-2 0  9990",
        "tle_line2": "2 36218  99.0771 187.8366 0072811 295.4261  63.9419 14.70989932591449"
      },
      "geometry": {
        "type": "Point",
        "coordinates": [
          -166.88795747178258,
          -25.107775676048835
        ]
      }
    },
    {
      "type": "Feature",
      "properties": {
        "norad_id": 36224,
        "name": "FENGYUN 1C DEB",
        "group": "fengyun-1c-debris",
        "lat": 70.48049745377482,
        "lon": -119.13394433326843,
        "alt_km": 881.4785883224267,
        "timestamp": "2025-12-13T16:48:32.998246+00:00",
        "meta_object_name": "FENGYUN 1C DEB",
        "meta_object_id": "1999-025DUZ",
        "meta_epoch": "2025-12-10T20:19:03.114048",
        "meta_mean_motion": 14.1276103,
        "meta_eccentricity": 0.0114684,
        "meta_inclination": 98.7804,
        "meta_ra_of_asc_node": 32.2203,
        "meta_arg_of_pericenter": 357.4017,
        "meta_mean_anomaly": 2.6546,
        "meta_ephemeris_type": 0,
        "meta_classification_type": "U",
        "meta_norad_cat_id": 36224,
        "meta_element_set_no": 999,
        "meta_rev_at_epoch": 64405,
        "meta_bstar": 0.00016786,
        "meta_mean_motion_dot": 2.88e-06,
        "meta_mean_motion_ddot": 0,
        "tle_line1": "1 36224U 99025DUZ 25344.84656382  .00000288  00000+0  16786-3 0  9990",
        "tle_line2": "2 36224  98.7804  32.2203 0114684 357.4017   2.6546 14.12761030644055"
      },
      "geometry": {
        "type": "Point",
        "coordinates": [
          -119.13394433326843,
          70.48049745377482
        ]
      }
    },
    {
      "type": "Feature",
      "properties": {
        "norad_id": 36225,
        "name": "FENGYUN 1C DEB",
        "group": "fengyun-1c-debris",
        "lat": -9.308307857595642,
        "lon": -72.21917093735425,
        "alt_km": 556.6748483753563,
        "timestamp": "2025-12-13T16:48:32.998256+00:00",
        "meta_object_name": "FENGYUN 1C DEB",
        "meta_object_id": "1999-025DVA",
        "meta_epoch": "2025-12-11T03:22:25.516704",
        "meta_mean_motion": 15.05886228,
        "meta_eccentricity": 0.00436396,
        "meta_inclination": 98.8181,
        "meta_ra_of_asc_node": 106.3139,
        "meta_arg_of_pericenter": 296.8088,
        "meta_mean_anomaly": 62.8675,
        "meta_ephemeris_type": 0,
        "meta_classification_type": "U",
        "meta_norad_cat_id": 36225,
        "meta_element_set_no": 999,
        "meta_rev_at_epoch": 66748,
        "meta_bstar": 0.0037986718,
        "meta_mean_motion_dot": 0.00056719,
        "meta_mean_motion_ddot": 0,
        "tle_line1": "1 36225U 99025DVA 25345.14057311  .00056719  00000+0  37987-2 0  9997",
        "tle_line2": "2 36225  98.8181 106.3139 0043639 296.8088  62.8675 15.05886228667484"
      },
      "geometry": {
        "type": "Point",
        "coordinates": [
          -72.21917093735425,
          -9.308307857595642
        ]
      }
    },
    {
      "type": "Feature",
      "properties": {
        "norad_id": 36226,
        "name": "FENGYUN 1C DEB",
        "group": "fengyun-1c-debris",
        "lat": -68.84938837442931,
        "lon": -172.88513727144,
        "alt_km": 907.3942366130213,
        "timestamp": "2025-12-13T16:48:32.998266+00:00",
        "meta_object_name": "FENGYUN 1C DEB",
        "meta_object_id": "1999-025DVB",
        "meta_epoch": "2025-12-05T08:24:08.459424",
        "meta_mean_motion": 14.10238341,
        "meta_eccentricity": 0.00958599,
        "meta_inclination": 98.6088,
        "meta_ra_of_asc_node": 22.1717,
        "meta_arg_of_pericenter": 41.8631,
        "meta_mean_anomaly": 318.982,
        "meta_ephemeris_type": 0,
        "meta_classification_type": "U",
        "meta_norad_cat_id": 36226,
        "meta_element_set_no": 999,
        "meta_rev_at_epoch": 63658,
        "meta_bstar": 0.0024391454,
        "meta_mean_motion_dot": 4.471e-05,
        "meta_mean_motion_ddot": 0,
        "tle_line1": "1 36226U 99025DVB 25339.35009791  .00004471  00000+0  24391-2 0  9996",
        "tle_line2": "2 36226  98.6088  22.1717 0095859  41.8631 318.9820 14.10238341636585"
      },
      "geometry": {
        "type": "Point",
        "coordinates": [
          -172.88513727144,
          -68.84938837442931
        ]
      }
    },
    {
      "type": "Feature",
      "properties": {
        "norad_id": 36229,
        "name": "FENGYUN 1C DEB",
        "group": "fengyun-1c-debris",
        "lat": 6.408967145161166,
        "lon": -153.57519007447638,
        "alt_km": 899.8983211365021,
        "timestamp": "2025-12-13T16:48:32.998276+00:00",
        "meta_object_name": "FENGYUN 1C DEB",
        "meta_object_id": "1999-025DVE",
        "meta_epoch": "2025-12-10T20:31:15.732480",
        "meta_mean_motion": 14.07174433,
        "meta_eccentricity": 0.01025458,
        "meta_inclination": 100.925,
        "meta_ra_of_asc_node": 204.236,
        "meta_arg_of_pericenter": 127.5595,
        "meta_mean_anomaly": 233.4936,
        "meta_ephemeris_type": 0,
        "meta_classification_type": "U",
        "meta_norad_cat_id": 36229,
        "meta_element_set_no": 999,
        "meta_rev_at_epoch": 63229,
        "meta_bstar": 0.0021853146,
        "meta_mean_motion_dot": 3.782e-05,
        "meta_mean_motion_ddot": 0,
        "tle_line1": "1 36229U 99025DVE 25344.85504320  .00003782  00000+0  21853-2 0  9992",
        "tle_line2": "2 36229 100.9250 204.2360 0102545 127.5595 233.4936 14.07174433632295"
      },
      "geometry": {
        "type": "Point",
        "coordinates": [
          -153.57519007447638,
          6.408967145161166
        ]
      }
    },
    {
      "type": "Feature",
      "properties": {
        "norad_id": 36230,
        "name": "FENGYUN 1C DEB",
        "group": "fengyun-1c-debris",
        "lat": 58.91782065037073,
        "lon": -101.01819366934767,
        "alt_km": 823.8682138973063,
        "timestamp": "2025-12-13T16:48:32.998286+00:00",
        "meta_object_name": "FENGYUN 1C DEB",
        "meta_object_id": "1999-025DVF",
        "meta_epoch": "2025-12-09T10:57:40.047264",
        "meta_mean_motion": 13.75251341,
        "meta_eccentricity": 0.02176389,
        "meta_inclination": 99.5242,
        "meta_ra_of_asc_node": 58.5726,
        "meta_arg_of_pericenter": 150.5804,
        "meta_mean_anomaly": 210.7803,
        "meta_ephemeris_type": 0,
        "meta_classification_type": "U",
        "meta_norad_cat_id": 36230,
        "meta_element_set_no": 999,
        "meta_rev_at_epoch": 61841,
        "meta_bstar": 0.0029401573,
        "meta_mean_motion_dot": 3.306e-05,
        "meta_mean_motion_ddot": 0,
        "tle_line1": "1 36230U 99025DVF 25343.45671351  .00003306  00000+0  29402-2 0  9998",
        "tle_line2": "2 36230  99.5242  58.5726 0217638 150.5804 210.7803 13.75251341618413"
      },
      "geometry": {
        "type": "Point",
        "coordinates": [
          -101.01819366934767,
          58.91782065037073
        ]
      }
    }
  ]
}